NUSAT-48 (HENRIETTA LE*)
1 60498U 24149AG  26068.80506098  .00012988  00000+0  45212-3 0  9999
2 60498  97.3923 150.8264 0002754 263.3026  96.7901 15.29812597 86946
STARLINK-33814          
1 63582U 25076P   26068.03740400  .00047391  00000+0  17192-2 0  9999
2 63582  43.0039 325.1199 0001404 269.9064  90.1627 15.27607641 51730
